{
    "links": {
        "self": "http://www.neowsapp.com/rest/v1/neo/3791295?api_key=iIulBulltgU6a56xZRHN4H3l9WmuAYTsLGpBGhQ2"
    },
    "id": "3791295",
    "neo_reference_id": "3791295",
    "name": "(2017 XR2)",
    "designation": "2017 XR2",
    "nasa_jpl_url": "http://ssd.jpl.nasa.gov/sbdb.cgi?sstr=3791295",
    "absolute_magnitude_h": 24.5,
    "estimated_diameter": {
        "kilometers": {
            "estimated_diameter_min": 0.0334622374,
            "estimated_diameter_max": 0.0748238376
        },
        "meters": {
            "estimated_diameter_min": 33.4622374455,
            "estimated_diameter_max": 74.8238376074
        },
        "miles": {
            "estimated_diameter_min": 0.0207924639,
            "estimated_diameter_max": 0.0464933628
        },
        "feet": {
            "estimated_diameter_min": 109.7842471007,
            "estimated_diameter_max": 245.4850393757
        }
    },
    "is_potentially_hazardous_asteroid": false,
    "close_approach_data": [
        {
            "close_approach_date": "1936-06-20",
            "close_approach_date_full": "1936-Jun-20 03:13",
            "epoch_date_close_approach": -1058215620000,
            "relative_velocity": {
                "kilometers_per_second": "7.5403445369",
                "kilometers_per_hour": "27145.2403327863",
                "miles_per_hour": "16866.9966945583"
            },
            "miss_distance": {
                "astronomical": "1.5892321929",
                "lunar": "618.2113230381",
                "kilometers": "237745750.993269123",
                "miles": "147728359.4121669774"
            },
            "orbiting_body": "Juptr"
        },
        {
            "close_approach_date": "2017-12-15",
            "close_approach_date_full": "2017-Dec-15 14:18",
            "epoch_date_close_approach": 1513347480000,
            "relative_velocity": {
                "kilometers_per_second": "9.4592932871",
                "kilometers_per_hour": "34053.4558335361",
                "miles_per_hour": "21159.4931538992"
            },
            "miss_distance": {
                "astronomical": "0.0311597637",
                "lunar": "12.1211480793",
                "kilometers": "4661434.279223319",
                "miles": "2896480.9495030422"
            },
            "orbiting_body": "Earth"
        },
        {
            "close_approach_date": "2019-09-09",
            "close_approach_date_full": "2019-Sep-09 21:32",
            "epoch_date_close_approach": 1568064720000,
            "relative_velocity": {
                "kilometers_per_second": "8.8472239268",
                "kilometers_per_hour": "31850.0061363189",
                "miles_per_hour": "19790.3552017588"
            },
            "miss_distance": {
                "astronomical": "1.738842151",
                "lunar": "676.409596739",
                "kilometers": "260127082.05581837",
                "miles": "161635473.652978706"
            },
            "orbiting_body": "Juptr"
        }
    ],
    "orbital_data": {
        "orbit_id": "5",
        "orbit_determination_date": "2018-01-12 06:22:53",
        "first_observation_date": "2017-12-11",
        "last_observation_date": "2017-12-30",
        "data_arc_in_days": 19,
        "observations_used": 58,
        "orbit_uncertainty": "7",
        "minimum_orbit_intersection": ".048176",
        "jupiter_tisserand_invariant": "2.972",
        "epoch_osculation": "2459000.5",
        "eccentricity": ".6331477988481387",
        "semi_major_axis": "2.813400747695742",
        "inclination": "9.444036715116253",
        "ascending_node_longitude": "80.56211597500113",
        "orbital_period": "1723.637065476441",
        "perihelion_distance": "1.032102257014475",
        "perihelion_argument": "2.204331637843088",
        "aphelion_distance": "4.594699238377008",
        "perihelion_time": "2459824.034263854574",
        "mean_anomaly": "187.9960782198096",
        "mean_motion": ".2088606744485912",
        "equinox": "J2000",
        "orbit_class": {
            "orbit_class_type": "AMO",
            "orbit_class_description": "Near-Earth asteroid orbits similar to that of 1221 Amor",
            "orbit_class_range": "1.017 AU < q (perihelion) < 1.3 AU"
        }
    },
    "is_sentry_object": false
}